CELESTIS-02             
1 25160U 98007D   09078.20449279 -.00000089  00000-0  18117-4 0    35
2 25160 107.9880 262.4494 0061542 122.5226 238.1868 14.20833353575665
CELESTIS-03             
1 26034U 99070C   09078.93502590  .00000639  00000-0  92487-4 0  4882
2 26034  98.3748  86.7813 0017483 276.3808  83.5387 14.79735167497123
AMC-14                  
1 32708U 08011A   09076.94168453  .00000161  00000-0  10000-3 0  3729
2 32708  13.1517 120.2080 0049944 356.2997  72.5516  1.00273733  4998
